EUTELSAT QUANTUM        
1 49056U 21069B   25228.76034594  .00000120  00000+0  00000+0 0  9990
2 49056   0.0424 283.5775 0002106 246.8844 116.3423  1.00273076 14874
EUTELSAT KONNECT VHTS   
1 53765U 22110A   25229.39375848  .00000009  00000+0  00000+0 0  9996
2 53765   0.0586 102.2010 0002477  43.5331 324.7108  1.00269960 10742
EUTELSAT HOTBIRD 13F    
1 54048U 22134A   25229.18171035  .00000080  00000+0  00000+0 0  9995
2 54048   0.0566 287.4159 0001934  66.5999  50.2083  1.00271387 10386
EUTELSAT HOTBIRD 13G    
1 54225U 22146A   25229.32442485  .00000080  00000+0  00000+0 0  9991
2 54225   0.0525 242.2082 0002125 305.5644 267.9651  1.00271027 10174
EUTELSAT 10B            
1 54259U 22157A   25228.84955101  .00000062  00000+0  00000+0 0  9990
2 54259   0.0522  99.3429 0001329 357.4636 184.4680  1.00269393  9969
EUTELSAT 36D            
1 59346U 24059A   25228.75492609  .00000150  00000+0  00000+0 0  9992
2 59346   0.0175 120.3771 0000278  84.8709  67.7607  1.00270713  5094
